{"fetched_at":"2026-03-29T16:36:15Z","count":15609,"tles":[{"name":"STARLINK-3577","line1":"1 51884U 22022AJ  26087.92062844  .00000865  00000+0  72394-4 0  9999","line2":"2 51884  53.2171 272.7899 0001562  89.9550 270.1621 15.08852169226230","category":"Starlink"}]}